{
  "norad_id": 64930,
  "name": "STARLINK-34220",
  "history": [
    {
      "epoch": "2026-03-28T20:57:48.478464",
      "apogee_km": 475.7943122478682,
      "perigee_km": 474.58305546650354,
      "latitude_deg": 32.2454745513441,
      "longitude_deg": 36.85386495990679,
      "semi_major_axis_km": 6853.325683857185,
      "eccentricity": 8.837e-05,
      "inclination_deg": 53.1574,
      "raan_deg": 256.3543,
      "arg_perigee_deg": 82.3287,
      "mean_anomaly_deg": 277.7814,
      "mean_motion_rev_day": 15.30208837
    }
  ]
}